201P/LONEOS,e,5.7395,19.7453,41.5439,3.354481,0.1604228,0.63717467,60.2050,06/06.0/2022,2000,g 14.0,4.0
# From MPEC 2022-K19
202P/Scotti,e,2.1201,177.3907,276.1141,4.096849,0.1188582,0.25984016,274.9515,06/06.0/2022,2000,g 13.5,4.0
# From MPEC 2021-S45
203P/Korlevic,e,2.9726,290.3183,154.7729,4.669979,0.0976634,0.31543084,80.4096,06/06.0/2022,2000,g 14.5,2.0
# From MPC 98566
204P/LINEAR-NEAT,e,6.5961,108.5016,356.6324,3.581586,0.1454089,0.48780610,336.1768,06/06.0/2022,2000,g 14.0,4.0
# From MPEC 2022-K19
205P/Giacobini,e,15.3062,179.6021,154.1749,3.542814,0.1478024,0.56813820,21.1819,06/06.0/2022,2000,g 13.0,4.0
# From MPC 75725
206P/Barnard-Boattini,e,33.6366,202.3349,189.5071,3.489131,0.1512266,0.55148600,69.3270,06/06.0/2022,2000,g 19.0,4.0
# From MPC 75725
207P/NEAT,e,10.1970,198.1967,273.0598,3.875884,0.1291659,0.75861362,281.8784,06/06.0/2022,2000,g 16.0,4.0
# From MPEC 2022-K19
208P/McMillan,e,4.4122,36.3397,310.5355,4.043390,0.1212232,0.37413405,261.8801,06/06.0/2022,2000,g 12.5,4.0
# From MPC 90771
209P/LINEAR,e,21.2579,62.7713,152.4435,2.959908,0.1935472,0.67310183,210.9480,06/06.0/2022,2000,g 17.0,2.0
# From MPC105242
210P/Christensen,e,10.2680,93.8162,345.8932,3.163434,0.1751725,0.83342105,138.2242,06/06.0/2022,2000,g 13.5,4.0
# From MPEC 2022-ED3
211P/Hill,e,18.9213,117.1314,4.2799,3.546230,0.1475889,0.34363658,342.2000,06/06.0/2022,2000,g 12.5,4.0
# From MPEC 2021-F20
212P/NEAT,e,22.1699,98.1483,14.0656,3.894852,0.1282235,0.58727438,271.6269,06/06.0/2022,2000,g 17.0,2.0
# From MPEC 2022-GA9
213P/VanNess,e,10.3813,311.2931,5.7117,3.347098,0.1609538,0.40824442,275.7261,06/06.0/2022,2000,g 10.5,4.0
# From MPC 92986
214P/LINEAR,e,15.1835,348.2489,190.1933,3.619700,0.1431183,0.48588657,343.9361,06/06.0/2022,2000,g 13.0,4.0
# From MPEC 2022-F14
215P/NEAT,e,10.5787,56.6840,262.3189,4.329682,0.1094007,0.16651520,101.6999,06/06.0/2022,2000,g 11.0,4.0
# From MPC100284
216P/LINEAR,e,9.0654,359.8136,151.5025,3.863149,0.1298051,0.44818263,284.7589,06/06.0/2022,2000,g 13.0,4.0
# From MPEC 2021-N06
217P/LINEAR,e,12.8629,125.4554,246.8884,3.949447,0.1255740,0.68917240,223.9256,06/06.0/2022,2000,g 12.0,4.0
# From MPEC 2022-K19
218P/LINEAR,e,2.7294,175.9868,59.6443,3.090398,0.1814189,0.62248376,110.6987,06/06.0/2022,2000,g 16.0,4.0
# From MPC100284
219P/LINEAR,e,11.5367,230.9531,107.5219,3.647975,0.1414576,0.35415718,272.6493,06/06.0/2022,2000,g 11.0,4.0
# From MPEC 2021-BE3
220P/McNaught,e,8.1288,150.1019,180.5777,3.116785,0.1791199,0.50161007,97.1476,06/06.0/2022,2000,g 15.0,4.0
# From MPEC 2021-J28
221P/LINEAR,e,11.4278,229.6878,40.1493,3.457671,0.1532952,0.49296096,26.0419,06/06.0/2022,2000,g 14.5,4.0
# From MPC 92277
222P/LINEAR,e,5.0986,6.7761,346.2653,2.899049,0.1996736,0.71479590,218.8856,06/06.0/2022,2000,g 20.0,4.0
# From MPEC 2021-S45
223P/Skiff,e,27.0268,346.7709,37.8289,4.158791,0.1162126,0.41636349,142.3379,06/06.0/2022,2000,g 12.0,4.0
# From MPC 75727
224P/LINEAR-NEAT,e,13.3043,40.0396,16.6570,3.445394,0.1541153,0.40616278,342.1323,06/06.0/2022,2000,g 15.5,4.0
# From MPC 75727
225P/LINEAR,e,21.3665,14.2037,3.8927,3.648841,0.1414072,0.63839860,299.4668,06/06.0/2022,2000,g 18.0,4.0
# From MPC106349
226P/Pigott-LINEAR-Kowalski,e,44.0394,54.0074,341.0523,3.766744,0.1348202,0.52883923,283.2476,06/06.0/2022,2000,g 12.5,4.0
# From MPC102956
227P/Catalina-LINEAR,e,7.2970,38.0487,103.3494,3.476966,0.1520209,0.53140304,263.2718,06/06.0/2022,2000,g 16.5,2.0
# From MPEC 2022-HC2
228P/LINEAR,e,7.9130,30.9849,114.9855,4.168378,0.1158120,0.17621706,94.8817,06/06.0/2022,2000,g 14.1,4.0
# From MPC106349
229P/Gibbs,e,26.0923,157.9110,224.0057,3.927783,0.1266143,0.37768092,232.9483,06/06.0/2022,2000,g 13.0,4.0
# From MPEC 2022-GA9
230P/LINEAR,e,15.4701,106.9844,313.4325,3.451204,0.1537263,0.54543865,12.0926,06/06.0/2022,2000,g 13.0,4.0
# From MPEC 2022-K19
231P/LINEAR-NEAT,e,12.3160,133.0101,44.0761,4.041278,0.1213182,0.24473337,131.6228,06/06.0/2022,2000,g 14.5,2.0
# From MPC112394
232P/Hill,e,14.6397,56.0182,53.2910,4.476848,0.1040508,0.33441283,120.4336,06/06.0/2022,2000,g 11.5,4.0
# From MPEC 2021-N06
233P/La Sagra,e,11.2863,74.9152,26.9897,3.029220,0.1869424,0.41195059,114.4860,06/06.0/2022,2000,g 15.0,4.0
# From MPEC 2022-K19
234P/LINEAR,e,11.5354,179.5715,357.2393,3.798106,0.1331537,0.25583691,244.0698,06/06.0/2022,2000,g 12.0,4.0
# From MPC110497
235P/LINEAR,e,9.1340,202.6872,333.5634,3.936627,0.1261879,0.33273080,193.4158,06/06.0/2022,2000,g 12.0,4.0
# From MPC107688
236P/LINEAR,e,16.3444,245.5885,119.2947,3.728956,0.1368747,0.50931161,226.7547,06/06.0/2022,2000,g 14.0,4.0
# From MPEC 2022-K19
237P/LINEAR,e,14.0148,245.3676,25.2496,3.512009,0.1497513,0.43425461,308.6881,06/06.0/2022,2000,g 14.5,2.0
# From MPEC 2022-K19
238P/Read,e,1.2641,51.6252,324.2321,3.167527,0.1748331,0.25197747,0.0838,06/06.0/2022,2000,g 14.5,4.0
# From MPEC 2021-F20
239P/LINEAR,e,11.2996,255.9185,220.4003,4.468658,0.1043370,0.63011864,129.7787,06/06.0/2022,2000,g 17.5,2.0
# From MPEC 2021-F20
240P/NEAT,e,23.5219,74.9076,351.9423,3.865182,0.1297027,0.44947624,192.2284,06/06.0/2022,2000,g 12.1,4.0
# From MPEC 2022-J42
241P/LINEAR,e,21.1051,305.4829,111.4411,4.919371,0.0903316,0.61019975,28.4661,06/06.0/2022,2000,g 13.5,4.0
# From MPEC 2021-S45
242P/Spahr,e,32.5081,180.3781,245.6446,5.494512,0.0765263,0.27857312,288.2449,06/06.0/2022,2000,g  8.0,4.0
# From MPEC 2022-K19
243P/NEAT,e,7.6406,87.6148,283.5887,3.830279,0.1314796,0.36051093,181.2523,06/06.0/2022,2000,g 12.5,4.0
# From MPEC 2022-ED3
244P/Scotti,e,2.2594,353.9905,93.0722,4.895087,0.0910046,0.19909724,345.0759,06/06.0/2022,2000,g  9.0,4.0
# From MPEC 2022-CN4
245P/WISE,e,21.1943,316.6564,316.8797,4.046270,0.1210938,0.45655255,191.2190,06/06.0/2022,2000,g 14.0,4.0
# From MPEC 2021-WD8
246P/NEAT,e,15.9664,78.5740,176.7967,4.029655,0.1218435,0.28888470,56.8398,06/06.0/2022,2000,g 10.5,4.0
# From MPEC 2021-F20
247P/LINEAR,e,13.6566,54.0192,47.4263,3.968137,0.1246879,0.62439990,159.9445,06/06.0/2022,2000,g 16.5,2.0
# From MPC 75730
248P/Gibbs,e,6.3506,207.7996,209.8504,5.991176,0.0672103,0.63881713,279.5295,06/06.0/2022,2000,g 14.0,4.0
# From MPEC 2021-S45
249P/LINEAR,e,8.3891,239.1167,65.6963,2.763348,0.2145610,0.81990583,151.5897,06/06.0/2022,2000,g 15.5,4.0
# From MPC110497
250P/Larson,e,13.1549,73.4056,46.1406,3.766457,0.1348356,0.39930257,214.7796,06/06.0/2022,2000,g 14.5,4.0
# From MPC104795
251P/LINEAR,e,23.3871,219.3559,31.2808,3.511992,0.1497524,0.50465451,267.5665,06/06.0/2022,2000,g 16.5,2.0
# From MPEC 2021-S45
252P/LINEAR,e,10.4108,190.9317,343.3435,3.050044,0.1850312,0.67173244,61.0113,06/06.0/2022,2000,g 17.5,4.0
# From MPEC 2020-FB5
253P/PANSTARRS,e,4.9435,146.8852,230.6675,3.465424,0.1527811,0.41437795,227.4161,06/06.0/2022,2000,g 14.5,4.0
# From MPEC 2022-K19
254P/McNaught,e,32.5709,129.1791,219.5945,4.614088,0.0994432,0.31978200,61.0426,06/06.0/2022,2000,g 11.0,4.0
# From MPEC 2021-UA9
255P/Levy,e,13.4109,275.6680,186.0068,2.942850,0.1952324,0.71158940,341.7861,06/06.0/2022,2000,g 14.1,4.0
# From MPEC 2022-C56
256P/LINEAR,e,27.6196,81.3407,124.2143,4.639048,0.0986417,0.41797445,332.4453,06/06.0/2022,2000,g 14.0,2.0
# From MPEC 2021-Y10
257P/Catalina,e,20.2204,207.7243,117.7160,3.763146,0.1350136,0.43028152,85.4974,06/06.0/2022,2000,g 11.5,4.0
# From MPEC 2021-U31
258P/PANSTARRS,e,6.7462,126.2429,25.8684,4.395955,0.1069361,0.20840569,76.7749,06/06.0/2022,2000,g 13.0,4.0
# From MPC106349
259P/Garradd,e,15.8912,51.4382,257.6437,2.731121,0.2183698,0.33889218,25.6845,06/06.0/2022,2000,g 15.5,4.0
# From MPEC 2022-K19
260P/McNaught,e,15.0588,349.3386,18.4264,3.623129,0.1429152,0.60933241,142.8434,06/06.0/2022,2000,g 13.5,4.0
# From MPEC 2021-J28
261P/Larson,e,6.0732,291.1372,67.2129,3.490418,0.1511430,0.42335807,163.6280,06/06.0/2022,2000,g 14.0,4.0
# From MPC 82322
262P/McNaught-Russell,e,29.2669,217.8687,171.0376,6.872634,0.0547040,0.81612111,189.8844,06/06.0/2022,2000,g 13.5,4.0
# From MPC 89018
263P/Gibbs,e,11.5211,105.5212,35.0024,3.042695,0.1857020,0.59356075,315.6986,06/06.0/2022,2000,g  9.0,4.0
# From MPC114608
264P/Larsen,e,25.2514,220.3709,346.7201,3.888429,0.1285413,0.37566551,133.2576,06/06.0/2022,2000,g 13.0,4.0
# From MPC 79870
265P/LINEAR,e,14.3650,342.9259,33.4608,4.254755,0.1123032,0.64760454,54.1163,06/06.0/2022,2000,g 14.5,4.0
# From MPEC 2021-F20
266P/Christensen,e,3.4271,4.9984,97.7033,3.532430,0.1484546,0.33963739,115.4664,06/06.0/2022,2000,g 14.7,4.0
# From MPC114608
267P/LONEOS,e,6.1417,228.5820,114.2095,3.211215,0.1712774,0.61441503,242.0517,06/06.0/2022,2000,g 19.5,4.0
# From MPC 92277
268P/Bernardi,e,15.8694,126.9828,359.8004,4.561868,0.1011556,0.47787549,266.1006,06/06.0/2022,2000,g 14.0,4.0
# From MPC104795
269P/Jedicke,e,7.0777,241.7301,225.7493,7.071786,0.0524095,0.43102853,147.1100,06/06.0/2022,2000,g 10.0,4.0
# From MPC 88332
270P/Gehrels,e,2.9226,223.0115,209.7731,6.661408,0.0573264,0.46841699,188.2667,06/06.0/2022,2000,g  8.0,4.0
# From MPC 92277
271P/van Houten-Lemmon,e,6.8723,9.3183,36.3869,7.038589,0.0527808,0.39520725,171.4046,06/06.0/2022,2000,g 11.0,4.0
# From MPEC 2022-C56
272P/NEAT,e,18.0743,109.4702,27.8982,4.460009,0.1046407,0.45466802,355.7039,06/06.0/2022,2000,g 16.0,2.0
# From MPC 82723
273P/Pons-Gambart,e,136.7584,320.3992,20.3244,31.93231,0.0054621,0.97424443,0.0000,12/20.2206/2012,2000,g 11.5,4.0
# From MPEC 2022-K19
274P/Tombaugh-Tenagra,e,15.8155,81.3386,38.4683,4.375807,0.1076755,0.43938117,6.3034,06/06.0/2022,2000,g 13.0,4.0
# From MPC 81862
275P/Hermann,e,21.2754,348.7574,174.0023,5.775935,0.0710020,0.71264093,245.7845,06/06.0/2022,2000,g 17.0,4.0
# From MPEC 2022-K19
276P/Vorobjov,e,14.8101,211.3626,199.5518,5.322657,0.0802622,0.26763983,286.0313,06/06.0/2022,2000,g 11.5,4.0
# From MPEC 2021-F20
277P/LINEAR,e,16.7769,276.3265,152.3175,3.853419,0.1302971,0.50595292,68.1157,06/06.0/2022,2000,g 15.1,4.0
# From MPEC 2021-S45
278P/McNaught,e,6.6963,15.3825,237.7884,3.687540,0.1391871,0.43610348,88.0185,06/06.0/2022,2000,g 14.0,4.0
# From MPEC 2022-K19
